SENTINEL-6              
1 46984U 20086A   24226.61746947 -.00000057  00000+0  19290-4 0  9994
2 46984  66.0408  91.9894 0007770 269.6946  90.3179 12.80930575174180
